GLOBALSTAR M094         
1 39074U 13005C   25106.41312241 -.00000089  00000+0  81402-4 0  9990
2 39074  51.9988  10.1990 0000907  93.9506 266.1464 12.62269666564575
GLOBALSTAR M096         
1 39075U 13005D   25106.58475298 -.00000103  00000+0  51673-5 0  9996
2 39075  52.0082  58.1409 0000717  83.2650 276.8298 12.62270174563513
GLOBALSTAR M078         
1 39076U 13005E   25106.55793993 -.00000091  00000+0  70322-4 0  9996
2 39076  51.9851 142.8170 0001098  58.5123 301.5850 12.62261476562137
GLOBALSTAR M095         
1 39077U 13005F   25106.34700144 -.00000080  00000+0  13127-3 0  9997
2 39077  51.9777 140.6881 0000759  88.1888 271.9065 12.62269215561967
GLOBALSTAR M087         
1 52888U 22064A   25106.61518281 -.00000093  00000+0  62453-4 0  9997
2 52888  51.9788 281.2745 0000939 100.0516 260.0457 12.62270924137262
